{
  "norad_id": 63720,
  "name": "STARLINK-33757",
  "history": [
    {
      "epoch": "2026-03-28T12:40:34.939488",
      "apogee_km": 476.0825415175341,
      "perigee_km": 474.3353495021847,
      "latitude_deg": 9.231502940346704,
      "longitude_deg": -117.29451168002561,
      "semi_major_axis_km": 6853.345945509859,
      "eccentricity": 0.00012747,
      "inclination_deg": 53.1598,
      "raan_deg": 132.0645,
      "arg_perigee_deg": 77.1917,
      "mean_anomaly_deg": 282.9226,
      "mean_motion_rev_day": 15.30202051
    }
  ]
}