{"fetched_at":"2026-03-29T02:12:04Z","count":15717,"tles":[{"name":"STARLINK-33757","line1":"1 63720U 25087Z   26087.52818217  .00024004  00000+0  81990-3 0  9996","line2":"2 63720  53.1598 132.0645 0001274  77.1917 282.9226 15.30202051 52083","category":"Starlink"}]}